{"type": "FeatureCollection", "features": [ {"type": "Feature", "properties": {"norad_id": 57401, "name": "TIANMU-1 09", "group": "weather", "lat": -11.963086595927855, "lon": -149.64339994576153, "alt_km": 486.93851505211023, "timestamp": "2025-12-08T15:42:49.421863+00:00", "meta": {"OBJECT_NAME": "TIANMU-1 09", "OBJECT_ID": "2023-101C", "EPOCH": "2025-12-08T05:26:48.204384", "MEAN_MOTION": 15.2798255, "ECCENTRICITY": 0.00068162, "INCLINATION": 97.2822, "RA_OF_ASC_NODE": 31.4912, "ARG_OF_PERICENTER": 96.0111, "MEAN_ANOMALY": 264.1906, "EPHEMERIS_TYPE": 0, "CLASSIFICATION_TYPE": "U", "NORAD_CAT_ID": 57401, "ELEMENT_SET_NO": 999, "REV_AT_EPOCH": 13246, "BSTAR": 0.00037435581, "MEAN_MOTION_DOT": 0.00010158, "MEAN_MOTION_DDOT": 0}, "tle": {"line1": "1 57401U 23101C   25342.22694681  .00010158  00000+0  37436-3 0  9998", "line2": "2 57401  97.2822  31.4912 0006816  96.0111 264.1906 15.27982550132466"}}, "geometry": {"type": "Point", "coordinates": [-149.64339994576153, -11.963086595927855]}}, {"type": "Feature", "properties": {"norad_id": 57402, "name": "TIANMU-1 10", "group": "weather", "lat": 3.668852788334705, "lon": 32.284193852061506, "alt_km": 484.56185531468964, "timestamp": "2025-12-08T15:42:49.421873+00:00", "meta": {"OBJECT_NAME": "TIANMU-1 10", "OBJECT_ID": "2023-101D", "EPOCH": "2025-12-08T06:16:02.189280", "MEAN_MOTION": 15.27973907, "ECCENTRICITY": 0.00085688, "INCLINATION": 97.2902, "RA_OF_ASC_NODE": 32.3695, "ARG_OF_PERICENTER": 96.2429, "MEAN_ANOMALY": 263.9787, "EPHEMERIS_TYPE": 0, "CLASSIFICATION_TYPE": "U", "NORAD_CAT_ID": 57402, "ELEMENT_SET_NO": 999, "REV_AT_EPOCH": 13246, "BSTAR": 0.00032514423, "MEAN_MOTION_DOT": 8.813e-05, "MEAN_MOTION_DDOT": 0}, "tle": {"line1": "1 57402U 23101D   25342.26113645  .00008813  00000+0  32514-3 0  9996", "line2": "2 57402  97.2902  32.3695 0008568  96.2429 263.9787 15.27973907132464"}}, "geometry": {"type": "Point", "coordinates": [32.284193852061506, 3.668852788334705]}}, {"type": "Feature", "properties": {"norad_id": 57490, "name": "FENGYUN 3F", "group": "weather", "lat": 50.19933779512215, "lon": 40.412853705062844, "alt_km": 820.7259079150663, "timestamp": "2025-12-08T15:42:49.421882+00:00", "meta": {"OBJECT_NAME": "FENGYUN 3F", "OBJECT_ID": "2023-111A", "EPOCH": "2025-12-08T07:01:05.619360", "MEAN_MOTION": 14.19891931, "ECCENTRICITY": 6.608e-05, "INCLINATION": 98.7091, "RA_OF_ASC_NODE": 50.6575, "ARG_OF_PERICENTER": 93.4152, "MEAN_ANOMALY": 266.71, "EPHEMERIS_TYPE": 0, "CLASSIFICATION_TYPE": "U", "NORAD_CAT_ID": 57490, "ELEMENT_SET_NO": 999, "REV_AT_EPOCH": 12177, "BSTAR": 0.00011737367, "MEAN_MOTION_DOT": 2.05e-06, "MEAN_MOTION_DDOT": 0}, "tle": {"line1": "1 57490U 23111A   25342.29242615  .00000205  00000+0  11737-3 0  9998", "line2": "2 57490  98.7091  50.6575 0000660  93.4152 266.7100 14.19891931121771"}}, "geometry": {"type": "Point", "coordinates": [40.412853705062844, 50.19933779512215]}}, {"type": "Feature", "properties": {"norad_id": 58584, "name": "ARKTIKA-M 2", "group": "weather", "lat": 59.19436534803969, "lon": -62.57328802646233, "alt_km": 34211.127598101375, "timestamp": "2025-12-08T15:42:49.421894+00:00", "meta": {"OBJECT_NAME": "ARKTIKA-M 2", "OBJECT_ID": "2023-198A", "EPOCH": "2025-12-07T20:14:37.201632", "MEAN_MOTION": 2.00604572, "ECCENTRICITY": 0.68645726, "INCLINATION": 63.2245, "RA_OF_ASC_NODE": 175.4245, "ARG_OF_PERICENTER": 268.1228, "MEAN_ANOMALY": 18.8285, "EPHEMERIS_TYPE": 0, "CLASSIFICATION_TYPE": "U", "NORAD_CAT_ID": 58584, "ELEMENT_SET_NO": 999, "REV_AT_EPOCH": 1448, "BSTAR": 0, "MEAN_MOTION_DOT": 1.69e-06, "MEAN_MOTION_DDOT": 0}, "tle": {"line1": "1 58584U 23198A   25341.84348613  .00000169  00000+0  00000+0 0  9999", "line2": "2 58584  63.2245 175.4245 6864572 268.1228  18.8285  2.00604572 14484"}}, "geometry": {"type": "Point", "coordinates": [-62.57328802646233, 59.19436534803969]}}, {"type": "Feature", "properties": {"norad_id": 58645, "name": "TIANMU-1 11", "group": "weather", "lat": -53.26675883455253, "lon": 172.3749754548886, "alt_km": 499.5764153918244, "timestamp": "2025-12-08T15:42:49.421906+00:00", "meta": {"OBJECT_NAME": "TIANMU-1 11", "OBJECT_ID": "2023-205A", "EPOCH": "2025-12-08T05:14:19.570848", "MEAN_MOTION": 15.24515089, "ECCENTRICITY": 0.00083239, "INCLINATION": 97.3605, "RA_OF_ASC_NODE": 1.921, "ARG_OF_PERICENTER": 328.59, "MEAN_ANOMALY": 31.484, "EPHEMERIS_TYPE": 0, "CLASSIFICATION_TYPE": "U", "NORAD_CAT_ID": 58645, "ELEMENT_SET_NO": 999, "REV_AT_EPOCH": 10840, "BSTAR": 0.00034104409, "MEAN_MOTION_DOT": 8.327e-05, "MEAN_MOTION_DDOT": 0}, "tle": {"line1": "1 58645U 23205A   25342.21828207  .00008327  00000+0  34104-3 0  9990", "line2": "2 58645  97.3605   1.9210 0008323 328.5900  31.4840 15.24515089108409"}}, "geometry": {"type": "Point", "coordinates": [172.3749754548886, -53.26675883455253]}}, {"type": "Feature", "properties": {"norad_id": 58646, "name": "TIANMU-1 12", "group": "weather", "lat": 82.35043624181785, "lon": -72.06060187402443, "alt_km": 488.243737732113, "timestamp": "2025-12-08T15:42:49.421916+00:00", "meta": {"OBJECT_NAME": "TIANMU-1 12", "OBJECT_ID": "2023-205B", "EPOCH": "2025-12-08T07:27:08.814816", "MEAN_MOTION": 15.24397166, "ECCENTRICITY": 0.00061244, "INCLINATION": 97.3593, "RA_OF_ASC_NODE": 1.8185, "ARG_OF_PERICENTER": 311.1885, "MEAN_ANOMALY": 48.8824, "EPHEMERIS_TYPE": 0, "CLASSIFICATION_TYPE": "U", "NORAD_CAT_ID": 58646, "ELEMENT_SET_NO": 999, "REV_AT_EPOCH": 10840, "BSTAR": 0.00032650263, "MEAN_MOTION_DOT": 7.937e-05, "MEAN_MOTION_DDOT": 0}, "tle": {"line1": "1 58646U 23205B   25342.31051869  .00007937  00000+0  32650-3 0  9994", "line2": "2 58646  97.3593   1.8185 0006124 311.1885  48.8824 15.24397166108401"}}, "geometry": {"type": "Point", "coordinates": [-72.06060187402443, 82.35043624181785]}}, {"type": "Feature", "properties": {"norad_id": 58647, "name": "TIANMU-1 13", "group": "weather", "lat": -80.00838120837362, "lon": 135.14165322324405, "alt_km": 495.94778195888193, "timestamp": "2025-12-08T15:42:49.421926+00:00", "meta": {"OBJECT_NAME": "TIANMU-1 13", "OBJECT_ID": "2023-205C", "EPOCH": "2025-12-08T05:06:35.564832", "MEAN_MOTION": 15.24438042, "ECCENTRICITY": 0.0006113, "INCLINATION": 97.3621, "RA_OF_ASC_NODE": 1.9217, "ARG_OF_PERICENTER": 287.7902, "MEAN_ANOMALY": 72.2668, "EPHEMERIS_TYPE": 0, "CLASSIFICATION_TYPE": "U", "NORAD_CAT_ID": 58647, "ELEMENT_SET_NO": 999, "REV_AT_EPOCH": 10838, "BSTAR": 0.00035690241, "MEAN_MOTION_DOT": 8.694e-05, "MEAN_MOTION_DDOT": 0}, "tle": {"line1": "1 58647U 23205C   25342.21291163  .00008694  00000+0  35690-3 0  9995", "line2": "2 58647  97.3621   1.9217 0006113 287.7902  72.2668 15.24438042108380"}}, "geometry": {"type": "Point", "coordinates": [135.14165322324405, -80.00838120837362]}}, {"type": "Feature", "properties": {"norad_id": 58648, "name": "TIANMU-1 14", "group": "weather", "lat": -5.479726639811975, "lon": 2.418401346458584, "alt_km": 494.12286250504076, "timestamp": "2025-12-08T15:42:49.421939+00:00", "meta": {"OBJECT_NAME": "TIANMU-1 14", "OBJECT_ID": "2023-205D", "EPOCH": "2025-12-08T07:51:39.698784", "MEAN_MOTION": 15.24424604, "ECCENTRICITY": 0.00069796, "INCLINATION": 97.3554, "RA_OF_ASC_NODE": 1.3872, "ARG_OF_PERICENTER": 292.4406, "MEAN_ANOMALY": 67.6092, "EPHEMERIS_TYPE": 0, "CLASSIFICATION_TYPE": "U", "NORAD_CAT_ID": 58648, "ELEMENT_SET_NO": 999, "REV_AT_EPOCH": 10840, "BSTAR": 0.00035689042, "MEAN_MOTION_DOT": 8.692e-05, "MEAN_MOTION_DDOT": 0}, "tle": {"line1": "1 58648U 23205D   25342.32754281  .00008692  00000+0  35689-3 0  9999", "line2": "2 58648  97.3554   1.3872 0006979 292.4406  67.6092 15.24424604108400"}}, "geometry": {"type": "Point", "coordinates": [2.418401346458584, -5.479726639811975]}}, {"type": "Feature", "properties": {"norad_id": 58660, "name": "TIANMU-1 19", "group": "weather", "lat": -20.515982044090425, "lon": -89.10218493403994, "alt_km": 487.0248962500882, "timestamp": "2025-12-08T15:42:49.421950+00:00", "meta": {"OBJECT_NAME": "TIANMU-1 19", "OBJECT_ID": "2023-208A", "EPOCH": "2025-12-08T06:58:41.494656", "MEAN_MOTION": 15.277255, "ECCENTRICITY": 0.00040249, "INCLINATION": 97.4393, "RA_OF_ASC_NODE": 93.3373, "ARG_OF_PERICENTER": 273.0458, "MEAN_ANOMALY": 87.032, "EPHEMERIS_TYPE": 0, "CLASSIFICATION_TYPE": "U", "NORAD_CAT_ID": 58660, "ELEMENT_SET_NO": 999, "REV_AT_EPOCH": 10814, "BSTAR": 0.00042588809, "MEAN_MOTION_DOT": 0.00011471, "MEAN_MOTION_DDOT": 0}, "tle": {"line1": "1 58660U 23208A   25342.29075804  .00011471  00000+0  42589-3 0  9995", "line2": "2 58660  97.4393  93.3373 0004024 273.0458  87.0320 15.27725500108147"}}, "geometry": {"type": "Point", "coordinates": [-89.10218493403994, -20.515982044090425]}}, {"type": "Feature", "properties": {"norad_id": 58661, "name": "TIANMU-1 20", "group": "weather", "lat": -75.37286295540935, "lon": -115.87193173703403, "alt_km": 482.45715826171454, "timestamp": "2025-12-08T15:42:49.421963+00:00", "meta": {"OBJECT_NAME": "TIANMU-1 20", "OBJECT_ID": "2023-208B", "EPOCH": "2025-12-08T06:44:14.199360", "MEAN_MOTION": 15.28916519, "ECCENTRICITY": 0.00063402, "INCLINATION": 97.4331, "RA_OF_ASC_NODE": 93.7706, "ARG_OF_PERICENTER": 284.7205, "MEAN_ANOMALY": 75.3332, "EPHEMERIS_TYPE": 0, "CLASSIFICATION_TYPE": "U", "NORAD_CAT_ID": 58661, "ELEMENT_SET_NO": 999, "REV_AT_EPOCH": 10821, "BSTAR": 0.00042761596, "MEAN_MOTION_DOT": 0.00011949, "MEAN_MOTION_DDOT": 0}, "tle": {"line1": "1 58661U 23208B   25342.28071990  .00011949  00000+0  42762-3 0  9990", "line2": "2 58661  97.4331  93.7706 0006340 284.7205  75.3332 15.28916519108210"}}, "geometry": {"type": "Point", "coordinates": [-115.87193173703403, -75.37286295540935]}}]}